[{"OBJECT_NAME":"YAOGAN-30 10B","OBJECT_ID":"2021-055B","EPOCH":"2026-03-09T23:15:59.423328","MEAN_MOTION":15.02202929,"ECCENTRICITY":0.00050008,"INCLINATION":34.9962,"RA_OF_ASC_NODE":36.3507,"ARG_OF_PERICENTER":289.0618,"MEAN_ANOMALY":70.9548,"EPHEMERIS_TYPE":0,"CLASSIFICATION_TYPE":"U","NORAD_CAT_ID":48861,"ELEMENT_SET_NO":999,"REV_AT_EPOCH":25824,"BSTAR":0.00040429536,"MEAN_MOTION_DOT":5.411e-5,"MEAN_MOTION_DDOT":0},{"OBJECT_NAME":"STARLINK-4385","OBJECT_ID":"2022-084K","EPOCH":"2026-03-09T16:55:25.071456","MEAN_MOTION":15.01260008,"ECCENTRICITY":0.00030379,"INCLINATION":97.602,"RA_OF_ASC_NODE":130.2285,"ARG_OF_PERICENTER":72.6956,"MEAN_ANOMALY":287.4601,"EPHEMERIS_TYPE":0,"CLASSIFICATION_TYPE":"U","NORAD_CAT_ID":53198,"ELEMENT_SET_NO":999,"REV_AT_EPOCH":19997,"BSTAR":2.3269437e-5,"MEAN_MOTION_DOT":2.41e-6,"MEAN_MOTION_DDOT":0}]
